{
  "type": "FeatureCollection",
  "columns": {
    "COAST": "Integer",
    "DIST_MAIN": "Float",
    "DIST_SINK": "Float",
    "ENDO": "Integer",
    "HYBAS_ID": "Long",
    "MAIN_BAS": "Long",
    "NEXT_DOWN": "Long",
    "NEXT_SINK": "Long",
    "ORDER": "Integer",
    "PFAF_ID": "Long",
    "SORT": "Long",
    "SUB_AREA": "Float",
    "UP_AREA": "Float",
    "system:index": "String"
  },
  "version": 1576573252846639,
  "id": "WWF/HydroSHEDS/v1/Basins/hybas_10",
  "properties": {
    "system:asset_size": 832786712
  },
  "features": [
    {
      "type": "Feature",
      "geometry": {
        "type": "Polygon",
        "coordinates": [
          [
            [
              -83.06249796159469,
              9.779165323548924
            ],
            [
              -83.06187812674624,
              9.76757615362389
            ],
            [
              -83.0561214191081,
              9.766100136228875
            ],
            [
              -83.05221074820504,
              9.763067954409962
            ],
            [
              -83.04623115685906,
              9.76153401600572
            ],
            [
              -83.04223574804996,
              9.756379332124089
            ],
            [
              -83.04109868820001,
              9.747791063527245
            ],
            [
              -83.03390174275906,
              9.73971125317307
            ],
            [
              -83.03333539693453,
              9.733334700512698
            ],
            [
              -83.02674039996418,
              9.73297794285612
            ],
            [
              -83.02325787242978,
              9.729522160675105
            ],
            [
              -83.00590748898642,
              9.728813132731252
            ],
            [
              -82.99755109959209,
              9.720479094552113
            ],
            [
              -82.99340858788439,
              9.721188103718752
            ],
            [
              -82.98992602382722,
              9.724648341023467
            ],
            [
              -82.97916622714325,
              9.725000609123088
            ],
            [
              -82.97916622714325,
              9.720831412708636
            ],
            [
              -82.9767404756055,
              9.72047912129876
            ],
            [
              -82.97254449314543,
              9.716314323522864
            ],
            [
              -82.9684109153026,
              9.717018860793297
            ],
            [
              -82.96421489735505,
              9.721188083993185
            ],
            [
              -82.95174274540794,
              9.720479113297392
            ],
            [
              -82.94754673926512,
              9.716314272528157
            ],
            [
              -82.9350746545091,
              9.717018873465989
            ],
            [
              -82.93159214300549,
              9.720479097416323
            ],
            [
              -82.92500152898288,
              9.720831404965482
            ],
            [
              -82.91445581176822,
              9.721402116030026
            ],
            [
              -82.91054513297252,
              9.724434371390878
            ],
            [
              -82.90538152587337,
              9.725566911979087
            ],
            [
              -82.90331690698831,
              9.71751826067218
            ],
            [
              -82.89778765008396,
              9.716100284442003
            ],
            [
              -82.89280241052138,
              9.712234223732361
            ],
            [
              -82.89109899862747,
              9.718878252270741
            ],
            [
              -82.88806679809511,
              9.722788948923126
            ],
            [
              -82.88693423530601,
              9.736286650310053
            ],
            [
              -82.8952326248541,
              9.738413593215794
            ],
            [
              -82.89640085031594,
              9.773042981038364
            ],
            [
              -82.89943308244112,
              9.776958069261047
            ],
            [
              -82.90056567928096,
              9.779914456791078
            ],
            [
              -82.89640085031594,
              9.785287656034626
            ],
            [
              -82.89526826482017,
              9.7897111414632
            ],
            [
              -82.89223608961359,
              9.793621763163054
            ],
            [
              -82.89166532919204,
              9.795833445266961
            ],
            [
              -82.89409106830463,
              9.795481222128737
            ],
            [
              -82.89791698362217,
              9.791682046548926
            ],
            [
              -82.90174284355938,
              9.795481200951729
            ],
            [
              -82.90416862648193,
              9.795833446783456
            ],
            [
              -82.9049311660654,
              9.799088586045341
            ],
            [
              -82.90927428121061,
              9.800528854482588
            ],
            [
              -82.91442009997073,
              9.796364089294714
            ],
            [
              -82.91891487429262,
              9.795302849582631
            ],
            [
              -82.9310837690429,
              9.783860791276915
            ],
            [
              -82.94281116476934,
              9.782803974296364
            ],
            [
              -82.96186940517988,
              9.801077320277654
            ],
            [
              -82.96302874874998,
              9.81057970198817
            ],
            [
              -82.96780003965392,
              9.816122349349833
            ],
            [
              -82.99999920924014,
              9.816666399210895
            ],
            [
              -83.0065897471325,
              9.816314133127046
            ],
            [
              -83.01214576482582,
              9.810784827456391
            ],
            [
              -83.01285476409994,
              9.793407737085877
            ],
            [
              -83.01837959865264,
              9.787856141693105
            ],
            [
              -83.02742260663358,
              9.787147166586209
            ],
            [
              -83.03090966736694,
              9.783686840425267
            ],
            [
              -83.0482556024756,
              9.782977836707513
            ],
            [
              -83.05174254332422,
              9.77952204459848
            ],
            [
              -83.06249796159469,
              9.779165323548924
            ]
          ]
        ]
      },
      "id": "001900000000000001d9",
      "properties": {
        "COAST": 0,
        "DIST_MAIN": 0,
        "DIST_SINK": 0,
        "ENDO": 0,
        "HYBAS_ID": 7100054890,
        "MAIN_BAS": 7100054890,
        "NEXT_DOWN": 0,
        "NEXT_SINK": 7100054890,
        "ORDER": 1,
        "PFAF_ID": 7539030801,
        "SORT": 98868,
        "SUB_AREA": 139.7,
        "UP_AREA": 730.4
      }
    }
  ]
}